{"fetched_at":"2026-03-30T06:02:59Z","count":15439,"tles":[{"name":"STARLINK-34585","line1":"1 64779U 25147AA  26087.89108351  .00012596  00000+0  43654-3 0  9997","line2":"2 64779  53.1605 153.4086 0001300  91.8711 268.2439 15.30209552 41644","category":"Starlink"}]}